NORAD_CAT_ID,OBJECT_NAME,OBJECT_TYPE,EPOCH,MEAN_MOTION,ECCENTRICITY,INCLINATION,RA_OF_ASC_NODE,ARG_OF_PERICENTER,MEAN_ANOMALY,BSTAR,MEAN_MOTION_DOT,MEAN_MOTION_DDOT,TLE_LINE0,TLE_LINE1,TLE_LINE2,SEMIMAJOR_AXIS,PERIOD,APOGEE,PERIGEE,DECAYED
55315.0,STARLINK-4623,PAYLOAD,2023-08-28 21:31:23,14.98329457,0.0003061,70.0006,193.6789,267.5137,92.5672,-1.5576e-05,-2.79e-06,0.0,0 STARLINK-4623,1 55315U 23010AY  23240.89679439 -.00000279  00000-0 -15576-4 0  9999,2 55315  70.0006 193.6789 0003061 267.5137  92.5672 14.98329457 34884,6950.195,96.107,574.187,569.932,0.0
55315.0,STARLINK-4623,PAYLOAD,2023-08-29 07:08:11,14.98314305,0.0002857,70.0007,192.6686,267.87,92.2132,0.00034725,4.051e-05,0.0,0 STARLINK-4623,1 55315U 23010AY  23241.29735529  .00004051  00000-0  34725-3 0  9993,2 55315  70.0007 192.6686 0002857 267.8700  92.2132 14.98314305 34650,6950.241,96.108,574.092,570.121,0.0
55315.0,STARLINK-4623,PAYLOAD,2023-08-29 13:32:43,14.98321837,0.000282,70.0009,191.995,269.0326,91.051,5.8921e-05,6.1e-06,0.0,0 STARLINK-4623,1 55315U 23010AY  23241.56439750  .00000610  00000-0  58921-4 0  9992,2 55315  70.0009 191.9950 0002820 269.0326  91.0510 14.98321837 34987,6950.218,96.108,574.043,570.123,0.0
55315.0,STARLINK-4623,PAYLOAD,2023-08-30 00:45:39,14.98362422,0.0002948,70.0009,190.8167,272.1416,87.9405,-0.00059706,-7.216e-05,0.0,0 STARLINK-4623,1 55315U 23010AY  23242.03171144 -.00007216  00000-0 -59706-3 0  9997,2 55315  70.0009 190.8167 0002948 272.1416  87.9405 14.98362422 34769,6950.093,96.105,574.007,569.909,0.0
55315.0,STARLINK-4623,PAYLOAD,2023-08-30 05:34:04,14.98343437,0.0002645,70.0009,190.3115,269.4909,90.5947,-0.0002871,-3.518e-05,0.0,0 STARLINK-4623,1 55315U 23010AY  23242.23199267 -.00003518  00000-0 -28710-3 0  9997,2 55315  70.0009 190.3115 0002645 269.4909  90.5947 14.98343437 34796,6950.151,96.106,573.855,570.178,0.0
55315.0,STARLINK-4623,PAYLOAD,2023-08-30 13:34:44,14.98330063,0.0002912,70.0009,189.4706,269.0526,91.0299,-2.3148e-05,-3.69e-06,0.0,0 STARLINK-4623,1 55315U 23010AY  23242.56579435 -.00000369  00000-0 -23148-4 0  9994,2 55315  70.0009 189.4706 0002912 269.0526  91.0299 14.98330063 34842,6950.193,96.107,574.082,570.034,0.0
55315.0,STARLINK-4623,PAYLOAD,2023-08-31 20:01:17,14.98325334,0.0002983,70.0001,186.2718,267.3542,92.7276,5.9695e-05,6.19e-06,0.0,0 STARLINK-4623,1 55315U 23010AY  23243.83423384  .00000619  00000-0  59695-4 0  9998,2 55315  70.0001 186.2718 0002983 267.3542  92.7276 14.98325334 35321,6950.207,96.107,574.146,569.999,0.0
55315.0,STARLINK-4623,PAYLOAD,2023-09-01 02:25:50,14.98329994,0.000318,70.0001,185.5991,270.7353,89.3442,-5.5036e-05,-7.5e-06,0.0,0 STARLINK-4623,1 55315U 23010AY  23244.10127492 -.00000750  00000-0 -55036-4 0  9993,2 55315  70.0001 185.5991 0003180 270.7353  89.3442 14.98329994 35079,6950.193,96.107,574.268,569.848,0.0
55315.0,STARLINK-4623,PAYLOAD,2023-09-01 13:38:46,14.98330211,0.000313,70.0,184.4209,269.7758,90.3042,3.5102e-06,-5.1e-07,0.0,0 STARLINK-4623,1 55315U 23010AY  23244.56859298 -.00000051  00000-0  35102-5 0  9995,2 55315  70.0000 184.4209 0003130 269.7758  90.3042 14.98330211 35432,6950.192,96.107,574.233,569.882,0.0
55315.0,STARLINK-4623,PAYLOAD,2023-09-01 23:15:27,14.98440847,0.0005442,70.004,183.4132,265.8145,94.2392,0.00061314,7.253e-05,0.0,0 STARLINK-4623,1 55315U 23010AY  23244.96906472  .00007253  00000-0  61314-3 0  9998,2 55315  70.0040 183.4132 0005442 265.8145  94.2392 14.98440847 35208,6949.85,96.1,575.497,567.933,0.0
55315.0,STARLINK-4623,PAYLOAD,2023-09-02 05:40:06,14.98336555,0.0003095,69.9988,182.7364,267.4852,92.5953,4.5509e-05,4.5e-06,0.0,0 STARLINK-4623,1 55315U 23010AY  23245.23618635  .00000450  00000-0  45509-4 0  9991,2 55315  69.9988 182.7364 0003095 267.4852  92.5953 14.98336555 35248,6950.173,96.107,574.189,569.887,0.0
55315.0,STARLINK-4623,PAYLOAD,2023-09-02 20:05:19,14.9832881,0.0003035,70.0002,181.2223,268.7685,91.3126,-3.6868e-07,-9.7e-07,0.0,0 STARLINK-4623,1 55315U 23010AY  23245.83703194 -.00000097  00000-0 -36868-6 0  9991,2 55315  70.0002 181.2223 0003035 268.7685  91.3126 14.98328810 35624,6950.197,96.107,574.171,569.952,0.0
55315.0,STARLINK-4623,PAYLOAD,2023-09-03 05:42:07,14.98331192,0.0003049,70.001,180.2131,270.3079,89.773,3.8303e-05,3.64e-06,0.0,0 STARLINK-4623,1 55315U 23010AY  23246.23758949  .00000364  00000-0  38303-4 0  9993,2 55315  70.0010 180.2131 0003049 270.3079  89.7730 14.98331192 35394,6950.189,96.107,574.173,569.935,0.0
55315.0,STARLINK-4623,PAYLOAD,2023-09-04 02:31:53,14.98310215,0.0002711,70.0015,178.0254,269.7793,90.3056,0.00019968,2.289e-05,0.0,0 STARLINK-4623,1 55315U 23010AY  23247.10547855  .00002289  00000-0  19968-3 0  9995,2 55315  70.0015 178.0254 0002711 269.7793  90.3056 14.98310215 35527,6950.254,96.108,574.003,570.235,0.0
55315.0,STARLINK-4623,PAYLOAD,2023-09-04 04:08:01,14.98328805,0.0002915,70.0014,177.8566,272.1069,87.9756,-8.601e-05,-1.119e-05,0.0,0 STARLINK-4623,1 55315U 23010AY  23247.17223536 -.00001119  00000-0 -86010-4 0  9995,2 55315  70.0014 177.8566 0002915 272.1069  87.9756 14.98328805 35533,6950.197,96.107,574.088,570.036,0.0
55315.0,STARLINK-4623,PAYLOAD,2023-09-04 12:08:41,14.98328275,0.0002866,70.0004,177.0156,268.8516,91.2315,-2.0186e-05,-3.34e-06,0.0,0 STARLINK-4623,1 55315U 23010AY  23247.50603397 -.00000334  00000-0 -20186-4 0  9999,2 55315  70.0004 177.0156 0002866 268.8516  91.2315 14.98328275 35870,6950.198,96.107,574.055,570.071,0.0
55315.0,STARLINK-4623,PAYLOAD,2023-09-05 05:46:09,14.9833635,0.0003194,70.0004,175.1644,267.2806,92.7988,-2.7871e-05,-4.26e-06,0.0,0 STARLINK-4623,1 55315U 23010AY  23248.24038666 -.00000426  00000-0 -27871-4 0  9992,2 55315  70.0004 175.1644 0003194 267.2806  92.7988 14.98336350 35696,6950.173,96.107,574.258,569.818,0.0
55315.0,STARLINK-4623,PAYLOAD,2023-09-06 00:59:46,14.98327592,0.0002841,70.0011,173.1441,270.7671,89.3163,3.7652e-05,3.56e-06,0.0,0 STARLINK-4623,1 55315U 23010AY  23249.04151232  .00000356  00000-0  37652-4 0  9994,2 55315  70.0011 173.1441 0002841 270.7671  89.3163 14.98327592 35813,6950.2,96.107,574.04,570.091,0.0
55315.0,STARLINK-4623,PAYLOAD,2023-09-06 05:48:10,14.98327341,0.0002606,70.0012,172.6405,268.3776,91.7085,9.6996e-05,1.064e-05,0.0,0 STARLINK-4623,1 55315U 23010AY  23249.24179112  .00001064  00000-0  96996-4 0  9996,2 55315  70.0012 172.6405 0002606 268.3776  91.7085 14.98327341 36134,6950.201,96.107,573.877,570.255,0.0
55315.0,STARLINK-4623,PAYLOAD,2023-09-07 01:01:47,14.98326753,0.0002543,70.0017,170.6184,263.6517,96.4353,8.1207e-05,8.76e-06,0.0,0 STARLINK-4623,1 55315U 23010AY  23250.04291078  .00000876  00000-0  81207-4 0  9991,2 55315  70.0017 170.6184 0002543 263.6517  96.4353 14.98326753 35968,6950.203,96.107,573.835,570.3,0.0
55315.0,STARLINK-4623,PAYLOAD,2023-09-07 18:39:16,14.98329519,0.000258,70.0001,168.7659,263.2424,96.8442,-1.3464e-05,-2.54e-06,0.0,0 STARLINK-4623,1 55315U 23010AY  23250.77727058 -.00000254  00000-0 -13464-4 0  9995,2 55315  70.0001 168.7659 0002580 263.2424  96.8442 14.98329519 36361,6950.194,96.107,573.853,570.266,0.0
55315.0,STARLINK-4623,PAYLOAD,2023-09-08 02:39:56,14.98328923,0.0002084,70.0049,167.9287,254.0804,106.0126,3.0331e-06,-5.7e-07,0.0,0 STARLINK-4623,1 55315U 23010AY  23251.11107139 -.00000057  00000-0  30331-5 0  9999,2 55315  70.0049 167.9287 0002084 254.0804 106.0126 14.98328923 36125,6950.196,96.107,573.51,570.613,0.0
55315.0,STARLINK-4623,PAYLOAD,2023-09-08 05:52:11,14.98348118,0.0002717,70.0009,167.5884,268.3238,91.761,0.00019038,2.18e-05,0.0,0 STARLINK-4623,1 55315U 23010AY  23251.24457304  .00002180  00000-0  19038-3 0  9992,2 55315  70.0009 167.5884 0002717 268.3238  91.7610 14.98348118 36140,6950.137,96.106,573.89,570.114,0.0
55315.0,STARLINK-4623,PAYLOAD,2023-09-08 18:41:16,14.98344826,0.0002248,70.0054,166.2494,271.1388,88.9513,-0.00015193,-1.906e-05,0.0,0 STARLINK-4623,1 55315U 23010AY  23251.77866663 -.00001906  00000-0 -15193-3 0  9997,2 55315  70.0054 166.2494 0002248 271.1388  88.9513 14.98344826 36221,6950.147,96.106,573.574,570.45,0.0
55315.0,STARLINK-4623,PAYLOAD,2023-09-09 02:41:57,14.98332369,0.0002041,70.0038,165.4039,256.6855,103.4076,-0.00022553,-2.783e-05,0.0,0 STARLINK-4623,1 55315U 23010AY  23252.11247329 -.00002783  00000-0 -22553-3 0  9990,2 55315  70.0038 165.4039 0002041 256.6855 103.4076 14.98332369 36278,6950.186,96.107,573.469,570.632,0.0
55315.0,STARLINK-4623,PAYLOAD,2023-09-09 04:18:05,14.98328227,0.0002584,70.0021,165.2336,270.9363,89.15,-2.7609e-05,-4.22e-06,0.0,0 STARLINK-4623,1 55315U 23010AY  23252.17923126 -.00000422  00000-0 -27609-4 0  9998,2 55315  70.0021 165.2336 0002584 270.9363  89.1500 14.98328227 36576,6950.198,96.107,573.859,570.267,0.0
55315.0,STARLINK-4623,PAYLOAD,2023-09-10 04:20:06,14.98329229,0.000262,70.0016,162.7102,260.9874,99.0989,5.869e-05,6.07e-06,0.0,0 STARLINK-4623,1 55315U 23010AY  23253.18062771  .00000607  00000-0  58690-4 0  9997,2 55315  70.0016 162.7102 0002620 260.9874  99.0989 14.98329229 36439,6950.195,96.107,573.881,570.239,0.0
55315.0,STARLINK-4623,PAYLOAD,2023-09-11 10:46:39,14.98330378,0.0002919,70.001,159.5116,264.0267,96.056,1.2926e-05,6.1e-07,0.0,0 STARLINK-4623,1 55315U 23010AY  23254.44906847  .00000061  00000-0  12926-4 0  9994,2 55315  70.0010 159.5116 0002919 264.0267  96.0560 14.98330378 36916,6950.192,96.107,574.085,570.028,0.0
55315.0,STARLINK-4623,PAYLOAD,2023-09-11 23:35:43,14.98332496,0.0002784,70.0008,158.1648,261.2601,98.8243,5.5061e-05,5.64e-06,0.0,0 STARLINK-4623,1 55315U 23010AY  23254.98314518  .00000564  00000-0  55061-4 0  9996,2 55315  70.0008 158.1648 0002784 261.2601  98.8243 14.98332496 36998,6950.185,96.107,573.985,570.115,0.0
55315.0,STARLINK-4623,PAYLOAD,2023-09-12 17:13:12,14.9832411,0.0002955,70.0008,156.3135,264.3895,95.6927,0.00012935,1.45e-05,0.0,0 STARLINK-4623,1 55315U 23010AY  23255.71750628  .00001450  00000-0  12935-3 0  9991,2 55315  70.0008 156.3135 0002955 264.3895  95.6927 14.98324110 36817,6950.211,96.107,574.13,570.022,0.0
